{
"type": "FeatureCollection",
"name": "training_points",
"crs": { "type": "name", "properties": { "name": "urn:ogc:def:crs:EPSG::32644" } },
"features": [
{ "type": "Feature", "properties": { "label": 1 }, "geometry": { "type": "Point", "coordinates": [ 322009.060753223660868, 3376749.999783477280289 ] } },
{ "type": "Feature", "properties": { "label": 1 }, "geometry": { "type": "Point", "coordinates": [ 333137.450269107590429, 3386495.418733967002481 ] } },
{ "type": "Feature", "properties": { "label": 1 }, "geometry": { "type": "Point", "coordinates": [ 299344.250783990137279, 3379547.105548392981291 ] } },
{ "type": "Feature", "properties": { "label": 1 }, "geometry": { "type": "Point", "coordinates": [ 326467.598030944704078, 3389090.977892298717052 ] } },
{ "type": "Feature", "properties": { "label": 1 }, "geometry": { "type": "Point", "coordinates": [ 321814.300125820445828, 3395303.408344635274261 ] } },
{ "type": "Feature", "properties": { "label": 1 }, "geometry": { "type": "Point", "coordinates": [ 293958.836931633355562, 3363608.246234690304846 ] } },
{ "type": "Feature", "properties": { "label": 1 }, "geometry": { "type": "Point", "coordinates": [ 323259.506132882670499, 3385798.155250849667937 ] } },
{ "type": "Feature", "properties": { "label": 1 }, "geometry": { "type": "Point", "coordinates": [ 333619.838222184334882, 3385909.669016417115927 ] } },
{ "type": "Feature", "properties": { "label": 1 }, "geometry": { "type": "Point", "coordinates": [ 308457.639182007638738, 3390976.896965974010527 ] } },
{ "type": "Feature", "properties": { "label": 1 }, "geometry": { "type": "Point", "coordinates": [ 318186.176573811797425, 3381692.642451744992286 ] } },
{ "type": "Feature", "properties": { "label": 1 }, "geometry": { "type": "Point", "coordinates": [ 309341.060904709913302, 3396374.135354870930314 ] } },
{ "type": "Feature", "properties": { "label": 1 }, "geometry": { "type": "Point", "coordinates": [ 315143.572110211942345, 3372550.646838353481144 ] } },
{ "type": "Feature", "properties": { "label": 1 }, "geometry": { "type": "Point", "coordinates": [ 307639.026870360365137, 3393664.314637978561223 ] } },
{ "type": "Feature", "properties": { "label": 1 }, "geometry": { "type": "Point", "coordinates": [ 330793.086740908562206, 3387211.481911066453904 ] } },
{ "type": "Feature", "properties": { "label": 1 }, "geometry": { "type": "Point", "coordinates": [ 308365.049367258034181, 3349034.861804236192256 ] } },
{ "type": "Feature", "properties": { "label": 1 }, "geometry": { "type": "Point", "coordinates": [ 333379.108279672160279, 3386204.136445033363998 ] } },
{ "type": "Feature", "properties": { "label": 1 }, "geometry": { "type": "Point", "coordinates": [ 315866.059768361388706, 3393339.612903465982527 ] } },
{ "type": "Feature", "properties": { "label": 1 }, "geometry": { "type": "Point", "coordinates": [ 322939.527867387514561, 3368433.718607206828892 ] } },
{ "type": "Feature", "properties": { "label": 1 }, "geometry": { "type": "Point", "coordinates": [ 311414.104563042637892, 3373860.534526886418462 ] } },
{ "type": "Feature", "properties": { "label": 1 }, "geometry": { "type": "Point", "coordinates": [ 305644.974365036934614, 3392761.691261025611311 ] } },
{ "type": "Feature", "properties": { "label": 1 }, "geometry": { "type": "Point", "coordinates": [ 330237.166679670335725, 3385905.792021777480841 ] } },
{ "type": "Feature", "properties": { "label": 1 }, "geometry": { "type": "Point", "coordinates": [ 315699.121582000865601, 3393576.328013459220529 ] } },
{ "type": "Feature", "properties": { "label": 1 }, "geometry": { "type": "Point", "coordinates": [ 311505.8376290408778, 3385879.205047966912389 ] } },
{ "type": "Feature", "properties": { "label": 1 }, "geometry": { "type": "Point", "coordinates": [ 309917.578868999087717, 3388987.800857501104474 ] } },
{ "type": "Feature", "properties": { "label": 1 }, "geometry": { "type": "Point", "coordinates": [ 329012.917520799615886, 3396919.787517196964473 ] } },
{ "type": "Feature", "properties": { "label": 1 }, "geometry": { "type": "Point", "coordinates": [ 313158.918357834103517, 3396175.555382448714226 ] } },
{ "type": "Feature", "properties": { "label": 1 }, "geometry": { "type": "Point", "coordinates": [ 328491.281721841078252, 3394057.634426270611584 ] } },
{ "type": "Feature", "properties": { "label": 1 }, "geometry": { "type": "Point", "coordinates": [ 314909.915867285279091, 3399038.774599013850093 ] } },
{ "type": "Feature", "properties": { "label": 1 }, "geometry": { "type": "Point", "coordinates": [ 314170.476915955310687, 3398297.233961262740195 ] } },
{ "type": "Feature", "properties": { "label": 1 }, "geometry": { "type": "Point", "coordinates": [ 313739.196112114004791, 3372612.736059510149062 ] } },
{ "type": "Feature", "properties": { "label": 1 }, "geometry": { "type": "Point", "coordinates": [ 312786.387192316702567, 3397570.874361346010119 ] } },
{ "type": "Feature", "properties": { "label": 1 }, "geometry": { "type": "Point", "coordinates": [ 315268.720717609568965, 3399745.205598322208971 ] } },
{ "type": "Feature", "properties": { "label": 1 }, "geometry": { "type": "Point", "coordinates": [ 329412.477718786220066, 3397506.276968033984303 ] } },
{ "type": "Feature", "properties": { "label": 1 }, "geometry": { "type": "Point", "coordinates": [ 305759.398429481429048, 3397738.767674039583653 ] } },
{ "type": "Feature", "properties": { "label": 1 }, "geometry": { "type": "Point", "coordinates": [ 330927.383068330120295, 3386930.832998918369412 ] } },
{ "type": "Feature", "properties": { "label": 1 }, "geometry": { "type": "Point", "coordinates": [ 329047.212533371523023, 3380514.922007936052978 ] } },
{ "type": "Feature", "properties": { "label": 1 }, "geometry": { "type": "Point", "coordinates": [ 331190.754509545862675, 3386522.193741562310606 ] } },
{ "type": "Feature", "properties": { "label": 1 }, "geometry": { "type": "Point", "coordinates": [ 329308.440959368250333, 3395561.589815572835505 ] } },
{ "type": "Feature", "properties": { "label": 0 }, "geometry": { "type": "Point", "coordinates": [ 306315.0, 3376395.0 ] } },
{ "type": "Feature", "properties": { "label": 0 }, "geometry": { "type": "Point", "coordinates": [ 308145.0, 3379695.0 ] } },
{ "type": "Feature", "properties": { "label": 0 }, "geometry": { "type": "Point", "coordinates": [ 307905.0, 3353475.0 ] } },
{ "type": "Feature", "properties": { "label": 0 }, "geometry": { "type": "Point", "coordinates": [ 316425.0, 3369945.0 ] } },
{ "type": "Feature", "properties": { "label": 0 }, "geometry": { "type": "Point", "coordinates": [ 310425.0, 3374055.0 ] } },
{ "type": "Feature", "properties": { "label": 0 }, "geometry": { "type": "Point", "coordinates": [ 310815.0, 3372075.0 ] } },
{ "type": "Feature", "properties": { "label": 0 }, "geometry": { "type": "Point", "coordinates": [ 306795.0, 3381795.0 ] } },
{ "type": "Feature", "properties": { "label": 0 }, "geometry": { "type": "Point", "coordinates": [ 316815.0, 3369945.0 ] } },
{ "type": "Feature", "properties": { "label": 0 }, "geometry": { "type": "Point", "coordinates": [ 295125.0, 3376785.0 ] } },
{ "type": "Feature", "properties": { "label": 0 }, "geometry": { "type": "Point", "coordinates": [ 315435.0, 3395715.0 ] } },
{ "type": "Feature", "properties": { "label": 0 }, "geometry": { "type": "Point", "coordinates": [ 308025.0, 3380685.0 ] } },
{ "type": "Feature", "properties": { "label": 0 }, "geometry": { "type": "Point", "coordinates": [ 298125.0, 3361125.0 ] } },
{ "type": "Feature", "properties": { "label": 0 }, "geometry": { "type": "Point", "coordinates": [ 306645.0, 3386985.0 ] } },
{ "type": "Feature", "properties": { "label": 0 }, "geometry": { "type": "Point", "coordinates": [ 309405.0, 3345255.0 ] } },
{ "type": "Feature", "properties": { "label": 0 }, "geometry": { "type": "Point", "coordinates": [ 297795.0, 3363765.0 ] } },
{ "type": "Feature", "properties": { "label": 0 }, "geometry": { "type": "Point", "coordinates": [ 304515.0, 3364605.0 ] } },
{ "type": "Feature", "properties": { "label": 0 }, "geometry": { "type": "Point", "coordinates": [ 306405.0, 3376275.0 ] } },
{ "type": "Feature", "properties": { "label": 0 }, "geometry": { "type": "Point", "coordinates": [ 306975.0, 3363885.0 ] } },
{ "type": "Feature", "properties": { "label": 0 }, "geometry": { "type": "Point", "coordinates": [ 303855.0, 3340665.0 ] } },
{ "type": "Feature", "properties": { "label": 0 }, "geometry": { "type": "Point", "coordinates": [ 300045.0, 3364335.0 ] } },
{ "type": "Feature", "properties": { "label": 0 }, "geometry": { "type": "Point", "coordinates": [ 318195.0, 3392685.0 ] } },
{ "type": "Feature", "properties": { "label": 0 }, "geometry": { "type": "Point", "coordinates": [ 308835.0, 3395415.0 ] } },
{ "type": "Feature", "properties": { "label": 0 }, "geometry": { "type": "Point", "coordinates": [ 299565.0, 3357825.0 ] } },
{ "type": "Feature", "properties": { "label": 0 }, "geometry": { "type": "Point", "coordinates": [ 317145.0, 3395145.0 ] } },
{ "type": "Feature", "properties": { "label": 0 }, "geometry": { "type": "Point", "coordinates": [ 297885.0, 3375675.0 ] } },
{ "type": "Feature", "properties": { "label": 0 }, "geometry": { "type": "Point", "coordinates": [ 325245.0, 3382365.0 ] } },
{ "type": "Feature", "properties": { "label": 0 }, "geometry": { "type": "Point", "coordinates": [ 306675.0, 3348825.0 ] } },
{ "type": "Feature", "properties": { "label": 0 }, "geometry": { "type": "Point", "coordinates": [ 300975.0, 3348885.0 ] } },
{ "type": "Feature", "properties": { "label": 0 }, "geometry": { "type": "Point", "coordinates": [ 306435.0, 3349335.0 ] } },
{ "type": "Feature", "properties": { "label": 0 }, "geometry": { "type": "Point", "coordinates": [ 320625.0, 3375705.0 ] } },
{ "type": "Feature", "properties": { "label": 0 }, "geometry": { "type": "Point", "coordinates": [ 304155.0, 3348105.0 ] } },
{ "type": "Feature", "properties": { "label": 0 }, "geometry": { "type": "Point", "coordinates": [ 330555.0, 3379185.0 ] } },
{ "type": "Feature", "properties": { "label": 0 }, "geometry": { "type": "Point", "coordinates": [ 308445.0, 3363225.0 ] } },
{ "type": "Feature", "properties": { "label": 0 }, "geometry": { "type": "Point", "coordinates": [ 294585.0, 3374955.0 ] } },
{ "type": "Feature", "properties": { "label": 0 }, "geometry": { "type": "Point", "coordinates": [ 298305.0, 3381165.0 ] } },
{ "type": "Feature", "properties": { "label": 0 }, "geometry": { "type": "Point", "coordinates": [ 328335.0, 3394575.0 ] } },
{ "type": "Feature", "properties": { "label": 0 }, "geometry": { "type": "Point", "coordinates": [ 298455.0, 3343005.0 ] } },
{ "type": "Feature", "properties": { "label": 0 }, "geometry": { "type": "Point", "coordinates": [ 320475.0, 3362715.0 ] } }
]
}
