{"type":"FeatureCollection","features":[{"type":"Feature","geometry":{"type":"Point","coordinates":[79.04769407969445,30.701650061973396]},"id":"0","properties":{"area_m2":2402.1656363291713,"candidate_id":0,"decision":"no"}},{"type":"Feature","geometry":{"type":"Point","coordinates":[79.02952244399403,30.30317109047662]},"id":"1","properties":{"area_m2":5168.6296343683925,"candidate_id":1,"decision":"no"}},{"type":"Feature","geometry":{"type":"Point","coordinates":[79.14513562113474,30.509885416121488]},"id":"2","properties":{"area_m2":2063.0796084181934,"candidate_id":2,"decision":"yes"}},{"type":"Feature","geometry":{"type":"Point","coordinates":[78.99921072025214,30.62598624987093]},"id":"3","properties":{"area_m2":2404.0465055334835,"candidate_id":3,"decision":"no"}},{"type":"Feature","geometry":{"type":"Point","coordinates":[79.18549761797696,30.606136442973888]},"id":"4","properties":{"area_m2":4465.5752472819,"candidate_id":4,"decision":"no"}},{"type":"Feature","geometry":{"type":"Point","coordinates":[79.25949115710154,30.59938456789791]},"id":"5","properties":{"area_m2":6870.590468876422,"candidate_id":5,"decision":"yes"}},{"type":"Feature","geometry":{"type":"Point","coordinates":[79.076863660911,30.458516752370514]},"id":"6","properties":{"area_m2":4128.338425238987,"candidate_id":6,"decision":"no"}},{"type":"Feature","geometry":{"type":"Point","coordinates":[78.90852754271833,30.531534814148902]},"id":"7","properties":{"area_m2":3781.4701738655663,"candidate_id":7,"decision":"yes"}},{"type":"Feature","geometry":{"type":"Point","coordinates":[78.9569385695032,30.271472540575324]},"id":"8","properties":{"area_m2":2068.120479149727,"candidate_id":8,"decision":"no"}},{"type":"Feature","geometry":{"type":"Point","coordinates":[79.24919646507442,30.60837670378053]},"id":"9","properties":{"area_m2":3434.9776490709382,"candidate_id":9,"decision":"unsure"}},{"type":"Feature","geometry":{"type":"Point","coordinates":[79.15794559550004,30.59213516169939]},"id":"10","properties":{"area_m2":3435.553788409512,"candidate_id":10,"decision":"no"}},{"type":"Feature","geometry":{"type":"Point","coordinates":[79.23600919474669,30.604819375560375]},"id":"11","properties":{"area_m2":3435.103810868505,"candidate_id":11,"decision":"no"}},{"type":"Feature","geometry":{"type":"Point","coordinates":[79.15524166625889,30.585897859653464]},"id":"12","properties":{"area_m2":4122.930093668991,"candidate_id":12,"decision":"no"}},{"type":"Feature","geometry":{"type":"Point","coordinates":[79.1895123968667,30.62184544374141]},"id":"13","properties":{"area_m2":2060.699347187051,"candidate_id":13,"decision":"yes"}},{"type":"Feature","geometry":{"type":"Point","coordinates":[79.06272589166545,30.57882041857397]},"id":"14","properties":{"area_m2":7215.657854490825,"candidate_id":14,"decision":"no"}},{"type":"Feature","geometry":{"type":"Point","coordinates":[79.07786813982734,30.48704370828828]},"id":"15","properties":{"area_m2":3783.207704296606,"candidate_id":15,"decision":"no"}},{"type":"Feature","geometry":{"type":"Point","coordinates":[79.13991256133238,30.67719022034072]},"id":"16","properties":{"area_m2":4805.549176458008,"candidate_id":16,"decision":"yes"}},{"type":"Feature","geometry":{"type":"Point","coordinates":[79.16548745385472,30.59287976680139]},"id":"17","properties":{"area_m2":3091.9748884732676,"candidate_id":17,"decision":"no"}},{"type":"Feature","geometry":{"type":"Point","coordinates":[79.21843814717198,30.547053209746682]},"id":"18","properties":{"area_m2":2749.7209455925254,"candidate_id":18,"decision":"unsure"}},{"type":"Feature","geometry":{"type":"Point","coordinates":[79.2376421321178,30.67438690637166]},"id":"19","properties":{"area_m2":6178.741941802646,"candidate_id":19,"decision":"no"}},{"type":"Feature","geometry":{"type":"Point","coordinates":[79.23305502138874,30.68188712586599]},"id":"20","properties":{"area_m2":2402.6577329630654,"candidate_id":20,"decision":"no"}},{"type":"Feature","geometry":{"type":"Point","coordinates":[79.1411702007299,30.69328289622026]},"id":"21","properties":{"area_m2":2402.3741499038842,"candidate_id":21,"decision":"no"}},{"type":"Feature","geometry":{"type":"Point","coordinates":[79.07872017848017,30.60292093597741]},"id":"22","properties":{"area_m2":2061.1016421166983,"candidate_id":22,"decision":"no"}},{"type":"Feature","geometry":{"type":"Point","coordinates":[79.03558607266861,30.589491120719565]},"id":"23","properties":{"area_m2":4122.776783803664,"candidate_id":23,"decision":"no"}},{"type":"Feature","geometry":{"type":"Point","coordinates":[79.10569957978426,30.29938020014867]},"id":"24","properties":{"area_m2":2067.53226370177,"candidate_id":24,"decision":"no"}},{"type":"Feature","geometry":{"type":"Point","coordinates":[79.07581562452131,30.44569579744231]},"id":"25","properties":{"area_m2":3096.660474182126,"candidate_id":25,"decision":"no"}},{"type":"Feature","geometry":{"type":"Point","coordinates":[79.0728931075514,30.662311553356503]},"id":"26","properties":{"area_m2":3433.064392686372,"candidate_id":26,"decision":"unsure"}},{"type":"Feature","geometry":{"type":"Point","coordinates":[78.97924443129016,30.312235323095393]},"id":"27","properties":{"area_m2":4479.066527816172,"candidate_id":27,"decision":"no"}},{"type":"Feature","geometry":{"type":"Point","coordinates":[79.06910221732605,30.718734734094227]},"id":"28","properties":{"area_m2":6862.115097754129,"candidate_id":28,"decision":"unsure"}},{"type":"Feature","geometry":{"type":"Point","coordinates":[79.07770996702789,30.65516190761788]},"id":"29","properties":{"area_m2":6523.301175499489,"candidate_id":29,"decision":"no"}},{"type":"Feature","geometry":{"type":"Point","coordinates":[78.91587957354876,30.25287741193463]},"id":"30","properties":{"area_m2":5171.280349690081,"candidate_id":30,"decision":"no"}},{"type":"Feature","geometry":{"type":"Point","coordinates":[78.90750556365421,30.531945473109438]},"id":"31","properties":{"area_m2":2406.3801743242766,"candidate_id":31,"decision":"unsure"}},{"type":"Feature","geometry":{"type":"Point","coordinates":[78.85557866160545,30.386891082454017]},"id":"32","properties":{"area_m2":4131.368727301617,"candidate_id":32,"decision":"yes"}},{"type":"Feature","geometry":{"type":"Point","coordinates":[79.0016447270577,30.625887862792833]},"id":"33","properties":{"area_m2":2060.6102156784445,"candidate_id":33,"decision":"no"}},{"type":"Feature","geometry":{"type":"Point","coordinates":[79.25885634856516,30.595602657782173]},"id":"34","properties":{"area_m2":10306.29315974364,"candidate_id":34,"decision":"unsure"}},{"type":"Feature","geometry":{"type":"Point","coordinates":[79.08728411677397,30.49968953637293]},"id":"35","properties":{"area_m2":2751.061221659831,"candidate_id":35,"decision":"no"}},{"type":"Feature","geometry":{"type":"Point","coordinates":[79.21403640413095,30.69117541973896]},"id":"36","properties":{"area_m2":6177.667894936126,"candidate_id":36,"decision":"no"}},{"type":"Feature","geometry":{"type":"Point","coordinates":[79.21687976877458,30.700316536682422]},"id":"37","properties":{"area_m2":15785.877814845848,"candidate_id":37,"decision":"unsure"}},{"type":"Feature","geometry":{"type":"Point","coordinates":[78.96798565887241,30.699020223889928]},"id":"38","properties":{"area_m2":14070.1944564059,"candidate_id":38,"decision":"unsure"}},{"type":"Feature","geometry":{"type":"Point","coordinates":[79.15661908634642,30.591677022326103]},"id":"39","properties":{"area_m2":4122.68450736608,"candidate_id":39,"decision":"yes"}},{"type":"Feature","geometry":{"type":"Point","coordinates":[79.02127427691657,30.68846232713721]},"id":"40","properties":{"area_m2":3775.3470615131355,"candidate_id":40,"decision":"no"}},{"type":"Feature","geometry":{"type":"Point","coordinates":[79.14363842901282,30.579504849730363]},"id":"41","properties":{"area_m2":2061.6008709621647,"candidate_id":41,"decision":"no"}},{"type":"Feature","geometry":{"type":"Point","coordinates":[79.19835438711871,30.646365173375983]},"id":"42","properties":{"area_m2":2403.5408513185944,"candidate_id":42,"decision":"unsure"}},{"type":"Feature","geometry":{"type":"Point","coordinates":[79.12333650383088,30.55764584538192]},"id":"43","properties":{"area_m2":2062.0643111943086,"candidate_id":43,"decision":"no"}},{"type":"Feature","geometry":{"type":"Point","coordinates":[78.97686120582347,30.652887227890336]},"id":"44","properties":{"area_m2":3090.058368753391,"candidate_id":44,"decision":"no"}},{"type":"Feature","geometry":{"type":"Point","coordinates":[79.19191389176544,30.55968202603947]},"id":"45","properties":{"area_m2":5155.056030959735,"candidate_id":45,"decision":"no"}},{"type":"Feature","geometry":{"type":"Point","coordinates":[78.92561731243943,30.253985335114272]},"id":"46","properties":{"area_m2":2068.4885751557777,"candidate_id":46,"decision":"no"}},{"type":"Feature","geometry":{"type":"Point","coordinates":[79.21960596073795,30.540926291671628]},"id":"47","properties":{"area_m2":3781.1047922889766,"candidate_id":47,"decision":"no"}},{"type":"Feature","geometry":{"type":"Point","coordinates":[79.15118427678848,30.58401139983298]},"id":"48","properties":{"area_m2":4123.008911540541,"candidate_id":48,"decision":"no"}},{"type":"Feature","geometry":{"type":"Point","coordinates":[79.21715056354289,30.701915279488883]},"id":"49","properties":{"area_m2":2058.9944019031077,"candidate_id":49,"decision":"no"}},{"type":"Feature","geometry":{"type":"Point","coordinates":[78.96071149370042,30.274845304595818]},"id":"50","properties":{"area_m2":3791.4265187013566,"candidate_id":50,"decision":"no"}},{"type":"Feature","geometry":{"type":"Point","coordinates":[79.26461508532405,30.594168523779437]},"id":"51","properties":{"area_m2":35041.91266275032,"candidate_id":51,"decision":"yes"}},{"type":"Feature","geometry":{"type":"Point","coordinates":[79.2327598616983,30.685711381840513]},"id":"52","properties":{"area_m2":4805.124918907197,"candidate_id":52,"decision":"no"}},{"type":"Feature","geometry":{"type":"Point","coordinates":[79.21490635202005,30.699633241794455]},"id":"53","properties":{"area_m2":6520.300299281528,"candidate_id":53,"decision":"no"}},{"type":"Feature","geometry":{"type":"Point","coordinates":[79.03541865930359,30.478991536526024]},"id":"54","properties":{"area_m2":3783.514086844869,"candidate_id":54,"decision":"no"}},{"type":"Feature","geometry":{"type":"Point","coordinates":[79.107705816991,30.55359594013877]},"id":"55","properties":{"area_m2":8248.608753241855,"candidate_id":55,"decision":"unsure"}},{"type":"Feature","geometry":{"type":"Point","coordinates":[78.90735156669395,30.24260068758126]},"id":"56","properties":{"area_m2":3447.895887892629,"candidate_id":56,"decision":"no"}},{"type":"Feature","geometry":{"type":"Point","coordinates":[79.12200400249645,30.34194537351624]},"id":"57","properties":{"area_m2":5511.026321316003,"candidate_id":57,"decision":"no"}},{"type":"Feature","geometry":{"type":"Point","coordinates":[79.0062261356001,30.625184182988143]},"id":"58","properties":{"area_m2":4121.257948966138,"candidate_id":58,"decision":"no"}},{"type":"Feature","geometry":{"type":"Point","coordinates":[79.04892605580815,30.70084478623137]},"id":"59","properties":{"area_m2":2745.3557755863885,"candidate_id":59,"decision":"no"}},{"type":"Feature","geometry":{"type":"Point","coordinates":[79.0571231808428,30.58196398912166]},"id":"60","properties":{"area_m2":5497.462650679805,"candidate_id":60,"decision":"no"}},{"type":"Feature","geometry":{"type":"Point","coordinates":[79.08170172980996,30.261244579455305]},"id":"61","properties":{"area_m2":2413.0562360121244,"candidate_id":61,"decision":"no"}},{"type":"Feature","geometry":{"type":"Point","coordinates":[78.85599787619216,30.388013975129184]},"id":"62","properties":{"area_m2":2065.660624062327,"candidate_id":62,"decision":"no"}},{"type":"Feature","geometry":{"type":"Point","coordinates":[79.0992516743511,30.34951617528808]},"id":"63","properties":{"area_m2":3099.711929237193,"candidate_id":63,"decision":"no"}},{"type":"Feature","geometry":{"type":"Point","coordinates":[78.95933407788773,30.705748091510955]},"id":"64","properties":{"area_m2":3088.367024320572,"candidate_id":64,"decision":"no"}},{"type":"Feature","geometry":{"type":"Point","coordinates":[79.07021612724903,30.45787296066332]},"id":"65","properties":{"area_m2":2064.1823806593807,"candidate_id":65,"decision":"no"}},{"type":"Feature","geometry":{"type":"Point","coordinates":[79.06960316163409,30.720476936225857]},"id":"66","properties":{"area_m2":11665.384486033305,"candidate_id":66,"decision":"unsure"}},{"type":"Feature","geometry":{"type":"Point","coordinates":[79.0095028490934,30.6248312731993]},"id":"67","properties":{"area_m2":2404.0756668149984,"candidate_id":67,"decision":"no"}},{"type":"Feature","geometry":{"type":"Point","coordinates":[79.13075566643582,30.569402257946592]},"id":"68","properties":{"area_m2":4467.266752115449,"candidate_id":68,"decision":"no"}},{"type":"Feature","geometry":{"type":"Point","coordinates":[79.01289077805042,30.69161459926349]},"id":"69","properties":{"area_m2":2402.4159077622417,"candidate_id":69,"decision":"unsure"}},{"type":"Feature","geometry":{"type":"Point","coordinates":[78.9949073597818,30.665054408332775]},"id":"70","properties":{"area_m2":2059.7796049390204,"candidate_id":70,"decision":"no"}},{"type":"Feature","geometry":{"type":"Point","coordinates":[79.08505330037582,30.49325161300583]},"id":"71","properties":{"area_m2":4126.862335913176,"candidate_id":71,"decision":"no"}},{"type":"Feature","geometry":{"type":"Point","coordinates":[79.1338553478855,30.327591577661096]},"id":"72","properties":{"area_m2":2411.4259666114726,"candidate_id":72,"decision":"no"}},{"type":"Feature","geometry":{"type":"Point","coordinates":[79.07414625610997,30.44729529800999]},"id":"73","properties":{"area_m2":2752.5419212320285,"candidate_id":73,"decision":"no"}},{"type":"Feature","geometry":{"type":"Point","coordinates":[79.00135409517071,30.636102234786165]},"id":"74","properties":{"area_m2":17513.369864870267,"candidate_id":74,"decision":"yes"}},{"type":"Feature","geometry":{"type":"Point","coordinates":[79.07602095480658,30.45072065772983]},"id":"75","properties":{"area_m2":7225.168383655003,"candidate_id":75,"decision":"no"}},{"type":"Feature","geometry":{"type":"Point","coordinates":[79.13654694524385,30.574982026975274]},"id":"76","properties":{"area_m2":7903.172654120915,"candidate_id":76,"decision":"no"}},{"type":"Feature","geometry":{"type":"Point","coordinates":[79.23817413399202,30.600929663447626]},"id":"77","properties":{"area_m2":6870.484198209015,"candidate_id":77,"decision":"no"}},{"type":"Feature","geometry":{"type":"Point","coordinates":[79.01431097224979,30.61388038156024]},"id":"78","properties":{"area_m2":3091.304166636335,"candidate_id":78,"decision":"no"}},{"type":"Feature","geometry":{"type":"Point","coordinates":[79.07051556564136,30.712036298163206]},"id":"79","properties":{"area_m2":2058.776744232656,"candidate_id":79,"decision":"no"}},{"type":"Feature","geometry":{"type":"Point","coordinates":[79.06403571836013,30.512975620190865]},"id":"80","properties":{"area_m2":3438.3574343209807,"candidate_id":80,"decision":"unsure"}},{"type":"Feature","geometry":{"type":"Point","coordinates":[78.96658048717906,30.290379080843888]},"id":"81","properties":{"area_m2":5169.306030423764,"candidate_id":81,"decision":"no"}},{"type":"Feature","geometry":{"type":"Point","coordinates":[79.15318452767411,30.296840963050904]},"id":"82","properties":{"area_m2":3445.9763400156035,"candidate_id":82,"decision":"no"}},{"type":"Feature","geometry":{"type":"Point","coordinates":[79.02619477048452,30.587644366880745]},"id":"83","properties":{"area_m2":7902.139139850764,"candidate_id":83,"decision":"no"}},{"type":"Feature","geometry":{"type":"Point","coordinates":[78.93780445388316,30.270664057723916]},"id":"84","properties":{"area_m2":2068.1375124715614,"candidate_id":84,"decision":"no"}},{"type":"Feature","geometry":{"type":"Point","coordinates":[79.10444942357059,30.553889767979147]},"id":"85","properties":{"area_m2":32994.34173555858,"candidate_id":85,"decision":"yes"}},{"type":"Feature","geometry":{"type":"Point","coordinates":[79.00956986405224,30.684917158092766]},"id":"86","properties":{"area_m2":6178.071102509889,"candidate_id":86,"decision":"yes"}},{"type":"Feature","geometry":{"type":"Point","coordinates":[79.179810591502,30.66556345628861]},"id":"87","properties":{"area_m2":2059.768754112449,"candidate_id":87,"decision":"no"}},{"type":"Feature","geometry":{"type":"Point","coordinates":[79.07436910788395,30.47097454348029]},"id":"88","properties":{"area_m2":4471.794353741539,"candidate_id":88,"decision":"yes"}},{"type":"Feature","geometry":{"type":"Point","coordinates":[79.18030662053883,30.573888423480952]},"id":"89","properties":{"area_m2":7903.26106669323,"candidate_id":89,"decision":"no"}},{"type":"Feature","geometry":{"type":"Point","coordinates":[79.06994663345496,30.56926405573805]},"id":"90","properties":{"area_m2":3436.3647709652732,"candidate_id":90,"decision":"no"}},{"type":"Feature","geometry":{"type":"Point","coordinates":[79.15551116273882,30.297344020814617]},"id":"91","properties":{"area_m2":2756.7648116460537,"candidate_id":91,"decision":"no"}},{"type":"Feature","geometry":{"type":"Point","coordinates":[78.99231585900006,30.66020622855681]},"id":"92","properties":{"area_m2":3776.4525301794697,"candidate_id":92,"decision":"yes"}},{"type":"Feature","geometry":{"type":"Point","coordinates":[78.92170827929401,30.25509870109556]},"id":"93","properties":{"area_m2":3792.186738441401,"candidate_id":93,"decision":"no"}},{"type":"Feature","geometry":{"type":"Point","coordinates":[79.03349136445686,30.47915486574033]},"id":"94","properties":{"area_m2":3783.50750350575,"candidate_id":94,"decision":"no"}},{"type":"Feature","geometry":{"type":"Point","coordinates":[79.23493015849742,30.605513718446947]},"id":"95","properties":{"area_m2":5839.635726943334,"candidate_id":95,"decision":"yes"}},{"type":"Feature","geometry":{"type":"Point","coordinates":[79.02530036186204,30.30304832366613]},"id":"96","properties":{"area_m2":2756.606551280744,"candidate_id":96,"decision":"no"}},{"type":"Feature","geometry":{"type":"Point","coordinates":[79.00809762079159,30.257833114740304]},"id":"97","properties":{"area_m2":8273.631125185268,"candidate_id":97,"decision":"yes"}},{"type":"Feature","geometry":{"type":"Point","coordinates":[78.99826107395991,30.624345753909186]},"id":"98","properties":{"area_m2":4121.292942078364,"candidate_id":98,"decision":"no"}},{"type":"Feature","geometry":{"type":"Point","coordinates":[79.18870391337113,30.621875387292615]},"id":"99","properties":{"area_m2":2060.699418085849,"candidate_id":99,"decision":"yes"}},{"type":"Feature","geometry":{"type":"Point","coordinates":[79.06956164072588,30.698467459084355]},"id":"100","properties":{"area_m2":2402.24533683435,"candidate_id":100,"decision":"no"}},{"type":"Feature","geometry":{"type":"Point","coordinates":[79.17594783610541,30.601567476082884]},"id":"101","properties":{"area_m2":3435.2344686313245,"candidate_id":101,"decision":"no"}},{"type":"Feature","geometry":{"type":"Point","coordinates":[79.20014246030436,30.65436445693372]},"id":"102","properties":{"area_m2":2060.0074346349757,"candidate_id":102,"decision":"no"}},{"type":"Feature","geometry":{"type":"Point","coordinates":[79.26264809414133,30.62493393640625]},"id":"103","properties":{"area_m2":2404.0728807042915,"candidate_id":103,"decision":"no"}},{"type":"Feature","geometry":{"type":"Point","coordinates":[79.10309446611946,30.3030034059052]},"id":"104","properties":{"area_m2":2067.4558606908477,"candidate_id":104,"decision":"no"}},{"type":"Feature","geometry":{"type":"Point","coordinates":[79.00535776346047,30.637176691150913]},"id":"105","properties":{"area_m2":2060.3735987332025,"candidate_id":105,"decision":"no"}},{"type":"Feature","geometry":{"type":"Point","coordinates":[79.2148808189366,30.688632190353943]},"id":"106","properties":{"area_m2":3432.128082855503,"candidate_id":106,"decision":"no"}},{"type":"Feature","geometry":{"type":"Point","coordinates":[79.06514064615611,30.571689507373744]},"id":"107","properties":{"area_m2":5498.045394326758,"candidate_id":107,"decision":"no"}},{"type":"Feature","geometry":{"type":"Point","coordinates":[79.19036266249117,30.622933171956312]},"id":"108","properties":{"area_m2":14768.19057811008,"candidate_id":108,"decision":"yes"}},{"type":"Feature","geometry":{"type":"Point","coordinates":[78.99649438600387,30.455836779664953]},"id":"109","properties":{"area_m2":2064.2248102879594,"candidate_id":109,"decision":"no"}},{"type":"Feature","geometry":{"type":"Point","coordinates":[79.07003646392953,30.43509168545955]},"id":"110","properties":{"area_m2":3441.1073854749884,"candidate_id":110,"decision":"unsure"}},{"type":"Feature","geometry":{"type":"Point","coordinates":[79.04937521245041,30.581840472055507]},"id":"111","properties":{"area_m2":3435.9186817039035,"candidate_id":111,"decision":"no"}},{"type":"Feature","geometry":{"type":"Point","coordinates":[79.05067135308263,30.41141722716331]},"id":"112","properties":{"area_m2":2409.3588037336162,"candidate_id":112,"decision":"no"}},{"type":"Feature","geometry":{"type":"Point","coordinates":[79.08808361767835,30.494200830512746]},"id":"113","properties":{"area_m2":6878.040639614246,"candidate_id":113,"decision":"no"}},{"type":"Feature","geometry":{"type":"Point","coordinates":[79.26110812664011,30.597441212140506]},"id":"114","properties":{"area_m2":2061.2196399643317,"candidate_id":114,"decision":"unsure"}},{"type":"Feature","geometry":{"type":"Point","coordinates":[79.07156360340575,30.70600655466208]},"id":"115","properties":{"area_m2":6519.868289038288,"candidate_id":115,"decision":"no"}},{"type":"Feature","geometry":{"type":"Point","coordinates":[79.08407263882687,30.569623379287354]},"id":"116","properties":{"area_m2":5498.162510995798,"candidate_id":116,"decision":"no"}},{"type":"Feature","geometry":{"type":"Point","coordinates":[79.06989850875613,30.702606125312517]},"id":"117","properties":{"area_m2":19217.138690567568,"candidate_id":117,"decision":"no"}},{"type":"Feature","geometry":{"type":"Point","coordinates":[79.21688706175229,30.68548209593238]},"id":"118","properties":{"area_m2":10296.720672097617,"candidate_id":118,"decision":"no"}},{"type":"Feature","geometry":{"type":"Point","coordinates":[79.26205777216809,30.596791003225622]},"id":"119","properties":{"area_m2":4809.542329825504,"candidate_id":119,"decision":"yes"}},{"type":"Feature","geometry":{"type":"Point","coordinates":[78.97829280757789,30.29653553562641]},"id":"120","properties":{"area_m2":2412.1916570041376,"candidate_id":120,"decision":"no"}},{"type":"Feature","geometry":{"type":"Point","coordinates":[79.10354362375001,30.306237341253667]},"id":"121","properties":{"area_m2":2067.388600691538,"candidate_id":121,"decision":"no"}},{"type":"Feature","geometry":{"type":"Point","coordinates":[79.02716686154953,30.706137360949583]},"id":"122","properties":{"area_m2":6176.710542472558,"candidate_id":122,"decision":"unsure"}},{"type":"Feature","geometry":{"type":"Point","coordinates":[79.07819829864913,30.658575843956097]},"id":"123","properties":{"area_m2":19225.899128111545,"candidate_id":123,"decision":"yes"}},{"type":"Feature","geometry":{"type":"Point","coordinates":[78.99799157822663,30.625588425766047]},"id":"124","properties":{"area_m2":4121.240735594914,"candidate_id":124,"decision":"no"}},{"type":"Feature","geometry":{"type":"Point","coordinates":[79.04373379411854,30.58200216525146]},"id":"125","properties":{"area_m2":3435.9129510207786,"candidate_id":125,"decision":"no"}},{"type":"Feature","geometry":{"type":"Point","coordinates":[79.05081251714829,30.698711288338448]},"id":"126","properties":{"area_m2":2059.061823825611,"candidate_id":126,"decision":"unsure"}},{"type":"Feature","geometry":{"type":"Point","coordinates":[78.97294716284676,30.284931777271783]},"id":"127","properties":{"area_m2":9994.545044595463,"candidate_id":127,"decision":"no"}},{"type":"Feature","geometry":{"type":"Point","coordinates":[79.02095850575186,30.436293432093645]},"id":"128","properties":{"area_m2":3096.959825402957,"candidate_id":128,"decision":"unsure"}},{"type":"Feature","geometry":{"type":"Point","coordinates":[79.2166622474143,30.694295722684583]},"id":"129","properties":{"area_m2":8923.008058395348,"candidate_id":129,"decision":"no"}},{"type":"Feature","geometry":{"type":"Point","coordinates":[78.90145535250058,30.435219082911875]},"id":"130","properties":{"area_m2":3785.2141923792656,"candidate_id":130,"decision":"no"}},{"type":"Feature","geometry":{"type":"Point","coordinates":[79.07630670584598,30.603921058896304]},"id":"131","properties":{"area_m2":3435.134959962905,"candidate_id":131,"decision":"no"}},{"type":"Feature","geometry":{"type":"Point","coordinates":[79.09841505864634,30.537953684310665]},"id":"132","properties":{"area_m2":3781.220528960719,"candidate_id":132,"decision":"no"}},{"type":"Feature","geometry":{"type":"Point","coordinates":[79.15624206327612,30.43501627527389]},"id":"133","properties":{"area_m2":45422.66157209543,"candidate_id":133,"decision":"yes"}},{"type":"Feature","geometry":{"type":"Point","coordinates":[79.2660308927176,30.592296859868416]},"id":"134","properties":{"area_m2":3435.55183200192,"candidate_id":134,"decision":"unsure"}},{"type":"Feature","geometry":{"type":"Point","coordinates":[78.96293278249966,30.2753352948288]},"id":"135","properties":{"area_m2":3791.405002470283,"candidate_id":135,"decision":"no"}},{"type":"Feature","geometry":{"type":"Point","coordinates":[79.03530134199453,30.482208694016467]},"id":"136","properties":{"area_m2":39553.61079976018,"candidate_id":136,"decision":"yes"}},{"type":"Feature","geometry":{"type":"Point","coordinates":[79.0311650805188,30.479612189534908]},"id":"137","properties":{"area_m2":4815.3505644556835,"candidate_id":137,"decision":"unsure"}},{"type":"Feature","geometry":{"type":"Point","coordinates":[79.17397154145883,30.6006751469483]},"id":"138","properties":{"area_m2":2061.1506039273986,"candidate_id":138,"decision":"unsure"}},{"type":"Feature","geometry":{"type":"Point","coordinates":[78.97168476101442,30.651743218422556]},"id":"139","properties":{"area_m2":4463.4702225977035,"candidate_id":139,"decision":"yes"}},{"type":"Feature","geometry":{"type":"Point","coordinates":[79.02515064384359,30.703831684992814]},"id":"140","properties":{"area_m2":2058.9532707136786,"candidate_id":140,"decision":"no"}},{"type":"Feature","geometry":{"type":"Point","coordinates":[79.12207458512108,30.341271636596833]},"id":"141","properties":{"area_m2":2411.0902574214756,"candidate_id":141,"decision":"no"}},{"type":"Feature","geometry":{"type":"Point","coordinates":[78.87346058062276,30.302497081382562]},"id":"142","properties":{"area_m2":3790.3550844279507,"candidate_id":142,"decision":"no"}},{"type":"Feature","geometry":{"type":"Point","coordinates":[79.22934768916343,30.593658306399718]},"id":"143","properties":{"area_m2":3091.9498121916067,"candidate_id":143,"decision":"yes"}},{"type":"Feature","geometry":{"type":"Point","coordinates":[79.0870659549075,30.551939404057766]},"id":"144","properties":{"area_m2":2405.8859375424136,"candidate_id":144,"decision":"no"}},{"type":"Feature","geometry":{"type":"Point","coordinates":[79.23227220475101,30.672570313345375]},"id":"145","properties":{"area_m2":2059.619379181256,"candidate_id":145,"decision":"no"}},{"type":"Feature","geometry":{"type":"Point","coordinates":[79.07578568220173,30.462634031151207]},"id":"146","properties":{"area_m2":2752.1086756597183,"candidate_id":146,"decision":"no"}},{"type":"Feature","geometry":{"type":"Point","coordinates":[79.05617246734518,30.706706294082192]},"id":"147","properties":{"area_m2":4117.782665791936,"candidate_id":147,"decision":"unsure"}},{"type":"Feature","geometry":{"type":"Point","coordinates":[78.97449027239605,30.652365127405243]},"id":"148","properties":{"area_m2":4463.4422195841,"candidate_id":148,"decision":"unsure"}},{"type":"Feature","geometry":{"type":"Point","coordinates":[79.15967036363396,30.589494116102347]},"id":"149","properties":{"area_m2":3435.646466527798,"candidate_id":149,"decision":"no"}},{"type":"Feature","geometry":{"type":"Point","coordinates":[79.24124844803865,30.6770757107388]},"id":"150","properties":{"area_m2":4462.300516078842,"candidate_id":150,"decision":"no"}},{"type":"Feature","geometry":{"type":"Point","coordinates":[78.91617501848228,30.253875541531652]},"id":"151","properties":{"area_m2":3102.73644813854,"candidate_id":151,"decision":"no"}},{"type":"Feature","geometry":{"type":"Point","coordinates":[79.09059406379252,30.605777116740644]},"id":"152","properties":{"area_m2":4465.590869742527,"candidate_id":152,"decision":"no"}},{"type":"Feature","geometry":{"type":"Point","coordinates":[78.96812259591329,30.3457033247008]},"id":"153","properties":{"area_m2":4133.110108720011,"candidate_id":153,"decision":"no"}},{"type":"Feature","geometry":{"type":"Point","coordinates":[79.06839236602073,30.71301992081252]},"id":"154","properties":{"area_m2":36371.37516937723,"candidate_id":154,"decision":"unsure"}},{"type":"Feature","geometry":{"type":"Point","coordinates":[79.19822605447447,30.64852540813497]},"id":"155","properties":{"area_m2":2060.131849164683,"candidate_id":155,"decision":"unsure"}},{"type":"Feature","geometry":{"type":"Point","coordinates":[79.22953234366317,30.617359852819092]},"id":"156","properties":{"area_m2":6869.318944184486,"candidate_id":156,"decision":"no"}},{"type":"Feature","geometry":{"type":"Point","coordinates":[79.01550872580262,30.61417981921924]},"id":"157","properties":{"area_m2":2404.340433157353,"candidate_id":157,"decision":"unsure"}},{"type":"Feature","geometry":{"type":"Point","coordinates":[79.01622737975266,30.298260300771297]},"id":"158","properties":{"area_m2":8614.815920717398,"candidate_id":158,"decision":"no"}},{"type":"Feature","geometry":{"type":"Point","coordinates":[79.23960844696626,30.675579669748405]},"id":"159","properties":{"area_m2":4119.109721824367,"candidate_id":159,"decision":"no"}},{"type":"Feature","geometry":{"type":"Point","coordinates":[78.93991716144787,30.271808572927952]},"id":"160","properties":{"area_m2":9306.510531486316,"candidate_id":160,"decision":"unsure"}},{"type":"Feature","geometry":{"type":"Point","coordinates":[78.98984685331722,30.368819971581804]},"id":"161","properties":{"area_m2":2066.0663037133236,"candidate_id":161,"decision":"no"}},{"type":"Feature","geometry":{"type":"Point","coordinates":[79.06584432696827,30.69449348124058]},"id":"162","properties":{"area_m2":14414.066002032985,"candidate_id":162,"decision":"unsure"}},{"type":"Feature","geometry":{"type":"Point","coordinates":[79.07641450287032,30.660684910136613]},"id":"163","properties":{"area_m2":4463.057218760661,"candidate_id":163,"decision":"yes"}},{"type":"Feature","geometry":{"type":"Point","coordinates":[79.07394413644062,30.708772419533773]},"id":"164","properties":{"area_m2":2745.1294909579815,"candidate_id":164,"decision":"no"}},{"type":"Feature","geometry":{"type":"Point","coordinates":[79.07431468954093,30.678375676093324]},"id":"165","properties":{"area_m2":5491.989669841914,"candidate_id":165,"decision":"unsure"}},{"type":"Feature","geometry":{"type":"Point","coordinates":[79.0905993213271,30.531851362612763]},"id":"166","properties":{"area_m2":7219.146572774793,"candidate_id":166,"decision":"no"}},{"type":"Feature","geometry":{"type":"Point","coordinates":[79.07497719809294,30.471918384291513]},"id":"167","properties":{"area_m2":5847.6727678339785,"candidate_id":167,"decision":"yes"}},{"type":"Feature","geometry":{"type":"Point","coordinates":[79.03407390961841,30.590614017221398]},"id":"168","properties":{"area_m2":2061.3669869711634,"candidate_id":168,"decision":"yes"}},{"type":"Feature","geometry":{"type":"Point","coordinates":[79.06600786614283,30.57534495807426]},"id":"169","properties":{"area_m2":4466.9937491223045,"candidate_id":169,"decision":"no"}},{"type":"Feature","geometry":{"type":"Point","coordinates":[79.04932684128201,30.581425863725382]},"id":"170","properties":{"area_m2":4466.739813813267,"candidate_id":170,"decision":"no"}},{"type":"Feature","geometry":{"type":"Point","coordinates":[79.11076281263848,30.551706076500494]},"id":"171","properties":{"area_m2":3780.682642457707,"candidate_id":171,"decision":"no"}},{"type":"Feature","geometry":{"type":"Point","coordinates":[79.04874639300901,30.702340480918075]},"id":"172","properties":{"area_m2":3431.6408760804743,"candidate_id":172,"decision":"unsure"}},{"type":"Feature","geometry":{"type":"Point","coordinates":[79.05136434098378,30.580711158428283]},"id":"173","properties":{"area_m2":2405.1713280030613,"candidate_id":173,"decision":"no"}},{"type":"Feature","geometry":{"type":"Point","coordinates":[79.08201999069051,30.5218509749887]},"id":"174","properties":{"area_m2":3438.042788544772,"candidate_id":174,"decision":"no"}},{"type":"Feature","geometry":{"type":"Point","coordinates":[79.19215034102938,30.621410473263516]},"id":"175","properties":{"area_m2":43274.896146239036,"candidate_id":175,"decision":"no"}},{"type":"Feature","geometry":{"type":"Point","coordinates":[79.0627421432836,30.700795380370277]},"id":"176","properties":{"area_m2":3431.6946459022524,"candidate_id":176,"decision":"unsure"}},{"type":"Feature","geometry":{"type":"Point","coordinates":[79.01694602862406,30.618397172915355]},"id":"177","properties":{"area_m2":6525.7856951972935,"candidate_id":177,"decision":"yes"}},{"type":"Feature","geometry":{"type":"Point","coordinates":[79.11163817136045,30.54772876734867]},"id":"178","properties":{"area_m2":12717.36507192561,"candidate_id":178,"decision":"unsure"}},{"type":"Feature","geometry":{"type":"Point","coordinates":[79.23043858320362,30.594110399279472]},"id":"179","properties":{"area_m2":5840.321926875577,"candidate_id":179,"decision":"yes"}},{"type":"Feature","geometry":{"type":"Point","coordinates":[79.07665405006719,30.4565254872614]},"id":"180","properties":{"area_m2":2064.210927258247,"candidate_id":180,"decision":"no"}},{"type":"Feature","geometry":{"type":"Point","coordinates":[79.08905080402229,30.545229132715818]},"id":"181","properties":{"area_m2":3093.4833026138685,"candidate_id":181,"decision":"no"}},{"type":"Feature","geometry":{"type":"Point","coordinates":[78.99396712699729,30.664503443793247]},"id":"182","properties":{"area_m2":3432.9891238018217,"candidate_id":182,"decision":"no"}},{"type":"Feature","geometry":{"type":"Point","coordinates":[79.1434801556195,30.51459515256332]},"id":"183","properties":{"area_m2":4813.619225697106,"candidate_id":183,"decision":"unsure"}},{"type":"Feature","geometry":{"type":"Point","coordinates":[79.21475954590888,30.69282282476761]},"id":"184","properties":{"area_m2":13727.916129678431,"candidate_id":184,"decision":"yes"}},{"type":"Feature","geometry":{"type":"Point","coordinates":[79.06608387657157,30.51216114834731]},"id":"185","properties":{"area_m2":2063.0306119547713,"candidate_id":185,"decision":"no"}},{"type":"Feature","geometry":{"type":"Point","coordinates":[79.01002900390029,30.619973954594943]},"id":"186","properties":{"area_m2":2747.6543749767093,"candidate_id":186,"decision":"no"}},{"type":"Feature","geometry":{"type":"Point","coordinates":[78.9744557176713,30.286379288234453]},"id":"187","properties":{"area_m2":11717.57024398836,"candidate_id":187,"decision":"no"}},{"type":"Feature","geometry":{"type":"Point","coordinates":[79.19269642548251,30.557675788508156]},"id":"188","properties":{"area_m2":6186.195506595685,"candidate_id":188,"decision":"unsure"}},{"type":"Feature","geometry":{"type":"Point","coordinates":[79.21336266753086,30.692527884182716]},"id":"189","properties":{"area_m2":4118.387493785311,"candidate_id":189,"decision":"unsure"}},{"type":"Feature","geometry":{"type":"Point","coordinates":[79.17720547995525,30.666481733308647]},"id":"190","properties":{"area_m2":3089.623769312925,"candidate_id":190,"decision":"unsure"}},{"type":"Feature","geometry":{"type":"Point","coordinates":[78.90984118142778,30.243688930307492]},"id":"191","properties":{"area_m2":2413.489622624649,"candidate_id":191,"decision":"unsure"}},{"type":"Feature","geometry":{"type":"Point","coordinates":[79.25931149417482,30.600089103903596]},"id":"192","properties":{"area_m2":2404.690250931264,"candidate_id":192,"decision":"no"}},{"type":"Feature","geometry":{"type":"Point","coordinates":[79.05265406294619,30.411946592665604]},"id":"193","properties":{"area_m2":2753.536774475417,"candidate_id":193,"decision":"no"}},{"type":"Feature","geometry":{"type":"Point","coordinates":[79.21652174462864,30.616725046297827]},"id":"194","properties":{"area_m2":2060.8090540764406,"candidate_id":194,"decision":"no"}},{"type":"Feature","geometry":{"type":"Point","coordinates":[79.06168213248588,30.69804254284738]},"id":"195","properties":{"area_m2":3088.613667125824,"candidate_id":195,"decision":"unsure"}},{"type":"Feature","geometry":{"type":"Point","coordinates":[79.14162021217815,30.314705458335]},"id":"196","properties":{"area_m2":5168.021897068469,"candidate_id":196,"decision":"no"}},{"type":"Feature","geometry":{"type":"Point","coordinates":[79.02936844974475,30.48246113259369]},"id":"197","properties":{"area_m2":2407.6050532736417,"candidate_id":197,"decision":"no"}},{"type":"Feature","geometry":{"type":"Point","coordinates":[79.04944365950332,30.683730810949402]},"id":"198","properties":{"area_m2":28831.340665067844,"candidate_id":198,"decision":"yes"}},{"type":"Feature","geometry":{"type":"Point","coordinates":[79.20979186516495,30.66693338566179]},"id":"199","properties":{"area_m2":2746.3205829685244,"candidate_id":199,"decision":"yes"}},{"type":"Feature","geometry":{"type":"Point","coordinates":[79.06719996184525,30.709825899461418]},"id":"200","properties":{"area_m2":22647.08041283151,"candidate_id":200,"decision":"yes"}},{"type":"Feature","geometry":{"type":"Point","coordinates":[79.00590958622148,30.628475867515547]},"id":"201","properties":{"area_m2":2403.9860779582928,"candidate_id":201,"decision":"no"}},{"type":"Feature","geometry":{"type":"Point","coordinates":[78.91757738709998,30.25205395602645]},"id":"202","properties":{"area_m2":4137.0589579632515,"candidate_id":202,"decision":"no"}},{"type":"Feature","geometry":{"type":"Point","coordinates":[79.0696771381412,30.706796127790465]},"id":"203","properties":{"area_m2":2745.1857301464356,"candidate_id":203,"decision":"no"}},{"type":"Feature","geometry":{"type":"Point","coordinates":[79.04956610765441,30.697711911541106]},"id":"204","properties":{"area_m2":5490.887684586512,"candidate_id":204,"decision":"unsure"}},{"type":"Feature","geometry":{"type":"Point","coordinates":[79.00771135048758,30.62686403220278]},"id":"205","properties":{"area_m2":3434.322957515563,"candidate_id":205,"decision":"no"}},{"type":"Feature","geometry":{"type":"Point","coordinates":[79.0595261757935,30.569463681386193]},"id":"206","properties":{"area_m2":3092.7222121748737,"candidate_id":206,"decision":"no"}},{"type":"Feature","geometry":{"type":"Point","coordinates":[79.2596451552957,30.605029837468678]},"id":"207","properties":{"area_m2":4809.134980560656,"candidate_id":207,"decision":"unsure"}},{"type":"Feature","geometry":{"type":"Point","coordinates":[79.22648448661516,30.664767803709346]},"id":"208","properties":{"area_m2":2403.081207995547,"candidate_id":208,"decision":"unsure"}},{"type":"Feature","geometry":{"type":"Point","coordinates":[79.0176862424275,30.64483752398821]},"id":"209","properties":{"area_m2":8584.210070965795,"candidate_id":209,"decision":"no"}},{"type":"Feature","geometry":{"type":"Point","coordinates":[79.06480550572641,30.576450578733247]},"id":"210","properties":{"area_m2":4466.939753672437,"candidate_id":210,"decision":"no"}},{"type":"Feature","geometry":{"type":"Point","coordinates":[79.05961600722165,30.70302320197517]},"id":"211","properties":{"area_m2":3431.6163584494393,"candidate_id":211,"decision":"yes"}},{"type":"Feature","geometry":{"type":"Point","coordinates":[79.06028628885934,30.567647087797702]},"id":"212","properties":{"area_m2":4467.3488345665,"candidate_id":212,"decision":"no"}},{"type":"Feature","geometry":{"type":"Point","coordinates":[78.9739067465261,30.282861180947]},"id":"213","properties":{"area_m2":3101.824511326557,"candidate_id":213,"decision":"no"}},{"type":"Feature","geometry":{"type":"Point","coordinates":[79.19137435980576,30.620059703334103]},"id":"214","properties":{"area_m2":7556.046909746428,"candidate_id":214,"decision":"unsure"}},{"type":"Feature","geometry":{"type":"Point","coordinates":[78.96762323712301,30.288968550459593]},"id":"215","properties":{"area_m2":5858.6288367540055,"candidate_id":215,"decision":"no"}},{"type":"Feature","geometry":{"type":"Point","coordinates":[79.07464033053975,30.715532242496533]},"id":"216","properties":{"area_m2":2744.9378111250567,"candidate_id":216,"decision":"no"}},{"type":"Feature","geometry":{"type":"Point","coordinates":[79.05973578246865,30.471317746810936]},"id":"217","properties":{"area_m2":2063.897227782612,"candidate_id":217,"decision":"yes"}},{"type":"Feature","geometry":{"type":"Point","coordinates":[79.0136821521618,30.699669491239586]},"id":"218","properties":{"area_m2":2059.0416148453874,"candidate_id":218,"decision":"unsure"}},{"type":"Feature","geometry":{"type":"Point","coordinates":[79.02479592216864,30.58605563999749]},"id":"219","properties":{"area_m2":4466.500311792569,"candidate_id":219,"decision":"unsure"}},{"type":"Feature","geometry":{"type":"Point","coordinates":[79.02839546591501,30.471805013663836]},"id":"220","properties":{"area_m2":3783.792888917059,"candidate_id":220,"decision":"no"}},{"type":"Feature","geometry":{"type":"Point","coordinates":[79.00093805208493,30.627169459850872]},"id":"221","properties":{"area_m2":3434.31188321103,"candidate_id":221,"decision":"no"}},{"type":"Feature","geometry":{"type":"Point","coordinates":[79.07285294800955,30.61398958863771]},"id":"222","properties":{"area_m2":5839.124188856613,"candidate_id":222,"decision":"unsure"}},{"type":"Feature","geometry":{"type":"Point","coordinates":[79.00039906883933,30.629527535153933]},"id":"223","properties":{"area_m2":13736.910909110971,"candidate_id":223,"decision":"no"}},{"type":"Feature","geometry":{"type":"Point","coordinates":[79.04530285126705,30.696255893286082]},"id":"224","properties":{"area_m2":2059.1142129772174,"candidate_id":224,"decision":"yes"}},{"type":"Feature","geometry":{"type":"Point","coordinates":[78.91616942889748,30.25616165371523]},"id":"225","properties":{"area_m2":8618.513127387047,"candidate_id":225,"decision":"no"}},{"type":"Feature","geometry":{"type":"Point","coordinates":[79.0812454426182,30.525426270103775]},"id":"226","properties":{"area_m2":3094.123726799042,"candidate_id":226,"decision":"no"}},{"type":"Feature","geometry":{"type":"Point","coordinates":[79.0708181359168,30.716252555558675]},"id":"227","properties":{"area_m2":45977.35373915752,"candidate_id":227,"decision":"yes"}},{"type":"Feature","geometry":{"type":"Point","coordinates":[79.07313565241866,30.7051117843619]},"id":"228","properties":{"area_m2":2745.233894801313,"candidate_id":228,"decision":"unsure"}},{"type":"Feature","geometry":{"type":"Point","coordinates":[78.9239498372371,30.250916270769867]},"id":"229","properties":{"area_m2":28614.98963777809,"candidate_id":229,"decision":"no"}},{"type":"Feature","geometry":{"type":"Point","coordinates":[79.14502945715876,30.57991317642231]},"id":"230","properties":{"area_m2":3779.5691636550123,"candidate_id":230,"decision":"no"}},{"type":"Feature","geometry":{"type":"Point","coordinates":[79.18874882798109,30.625543508820964]},"id":"231","properties":{"area_m2":5494.9842962362545,"candidate_id":231,"decision":"no"}},{"type":"Feature","geometry":{"type":"Point","coordinates":[79.08774961008612,30.502609060077717]},"id":"232","properties":{"area_m2":3782.5958740483416,"candidate_id":232,"decision":"no"}},{"type":"Feature","geometry":{"type":"Point","coordinates":[78.91699348345134,30.255123203029566]},"id":"233","properties":{"area_m2":2068.4655553104312,"candidate_id":233,"decision":"unsure"}},{"type":"Feature","geometry":{"type":"Point","coordinates":[79.2188324034377,30.698169800765363]},"id":"234","properties":{"area_m2":24708.881238926217,"candidate_id":234,"decision":"yes"}},{"type":"Feature","geometry":{"type":"Point","coordinates":[78.9740578925205,30.3551313578179]},"id":"235","properties":{"area_m2":2410.749042459119,"candidate_id":235,"decision":"no"}},{"type":"Feature","geometry":{"type":"Point","coordinates":[79.14253051070249,30.51473631720657]},"id":"236","properties":{"area_m2":2062.9766725755485,"candidate_id":236,"decision":"unsure"}},{"type":"Feature","geometry":{"type":"Point","coordinates":[78.97821230888935,30.291798964225993]},"id":"237","properties":{"area_m2":7581.530652975369,"candidate_id":237,"decision":"no"}},{"type":"Feature","geometry":{"type":"Point","coordinates":[78.97194043541487,30.69664516487301]},"id":"238","properties":{"area_m2":2745.474543433465,"candidate_id":238,"decision":"yes"}},{"type":"Feature","geometry":{"type":"Point","coordinates":[79.07826246550356,30.656554634953405]},"id":"239","properties":{"area_m2":2403.287555989058,"candidate_id":239,"decision":"no"}},{"type":"Feature","geometry":{"type":"Point","coordinates":[79.08693692867588,30.498331137620486]},"id":"240","properties":{"area_m2":12723.834832612318,"candidate_id":240,"decision":"unsure"}},{"type":"Feature","geometry":{"type":"Point","coordinates":[78.98343887042985,30.703966432888073]},"id":"241","properties":{"area_m2":2745.2738072594457,"candidate_id":241,"decision":"unsure"}},{"type":"Feature","geometry":{"type":"Point","coordinates":[79.07961849453768,30.584715078017414]},"id":"242","properties":{"area_m2":2061.4900817712232,"candidate_id":242,"decision":"no"}},{"type":"Feature","geometry":{"type":"Point","coordinates":[79.06113031241259,30.567056765143082]},"id":"243","properties":{"area_m2":4811.019017363406,"candidate_id":243,"decision":"no"}},{"type":"Feature","geometry":{"type":"Point","coordinates":[79.07228225052431,30.715395453374025]},"id":"244","properties":{"area_m2":3774.293161136991,"candidate_id":244,"decision":"no"}},{"type":"Feature","geometry":{"type":"Point","coordinates":[79.18960222806966,30.61983920640921]},"id":"245","properties":{"area_m2":2060.7427643203846,"candidate_id":245,"decision":"unsure"}},{"type":"Feature","geometry":{"type":"Point","coordinates":[79.28952252920939,30.627751290448632]},"id":"246","properties":{"area_m2":4464.577921921473,"candidate_id":246,"decision":"unsure"}},{"type":"Feature","geometry":{"type":"Point","coordinates":[78.90928793598509,30.531794327886644]},"id":"247","properties":{"area_m2":3093.922820859693,"candidate_id":247,"decision":"unsure"}},{"type":"Feature","geometry":{"type":"Point","coordinates":[79.11834055627686,30.29986490302891]},"id":"248","properties":{"area_m2":22053.569157010927,"candidate_id":248,"decision":"no"}},{"type":"Feature","geometry":{"type":"Point","coordinates":[79.02700716106696,30.65443816593576]},"id":"249","properties":{"area_m2":4463.351941063731,"candidate_id":249,"decision":"no"}},{"type":"Feature","geometry":{"type":"Point","coordinates":[78.97566202660772,30.65271754555073]},"id":"250","properties":{"area_m2":4806.768259341758,"candidate_id":250,"decision":"no"}},{"type":"Feature","geometry":{"type":"Point","coordinates":[79.1919378477731,30.63601886320947]},"id":"251","properties":{"area_m2":3090.597151183393,"candidate_id":251,"decision":"unsure"}},{"type":"Feature","geometry":{"type":"Point","coordinates":[79.01011883477156,30.699032114608542]},"id":"252","properties":{"area_m2":2402.230604256824,"candidate_id":252,"decision":"unsure"}},{"type":"Feature","geometry":{"type":"Point","coordinates":[79.06774312125279,30.72153113391636]},"id":"253","properties":{"area_m2":23330.51458749695,"candidate_id":253,"decision":"unsure"}},{"type":"Feature","geometry":{"type":"Point","coordinates":[79.18788259519924,30.608071275786173]},"id":"254","properties":{"area_m2":4808.98491312764,"candidate_id":254,"decision":"unsure"}},{"type":"Feature","geometry":{"type":"Point","coordinates":[79.08713439904564,30.50386670247892]},"id":"255","properties":{"area_m2":2063.2073046386477,"candidate_id":255,"decision":"no"}},{"type":"Feature","geometry":{"type":"Point","coordinates":[78.99571584557236,30.624959605322047]},"id":"256","properties":{"area_m2":2060.633755746587,"candidate_id":256,"decision":"no"}},{"type":"Feature","geometry":{"type":"Point","coordinates":[79.2363763757457,30.603001405987285]},"id":"257","properties":{"area_m2":10992.539724011382,"candidate_id":257,"decision":"yes"}},{"type":"Feature","geometry":{"type":"Point","coordinates":[79.16333548974531,30.599950505579145]},"id":"258","properties":{"area_m2":3435.2790613773072,"candidate_id":258,"decision":"unsure"}},{"type":"Feature","geometry":{"type":"Point","coordinates":[78.96832920815983,30.652711556749257]},"id":"259","properties":{"area_m2":5150.107347261721,"candidate_id":259,"decision":"unsure"}},{"type":"Feature","geometry":{"type":"Point","coordinates":[79.0649559921285,30.572837354674306]},"id":"260","properties":{"area_m2":3092.613697610328,"candidate_id":260,"decision":"no"}},{"type":"Feature","geometry":{"type":"Point","coordinates":[79.02600618071997,30.65346186376482]},"id":"261","properties":{"area_m2":4806.729363851794,"candidate_id":261,"decision":"no"}},{"type":"Feature","geometry":{"type":"Point","coordinates":[79.07219242073641,30.45180933292746]},"id":"262","properties":{"area_m2":2752.414441974516,"candidate_id":262,"decision":"no"}},{"type":"Feature","geometry":{"type":"Point","coordinates":[79.2178307274762,30.544866212091854]},"id":"263","properties":{"area_m2":28872.717189310948,"candidate_id":263,"decision":"yes"}},{"type":"Feature","geometry":{"type":"Point","coordinates":[79.10779565155057,30.658945864883204]},"id":"264","properties":{"area_m2":2059.9098020995125,"candidate_id":264,"decision":"no"}},{"type":"Feature","geometry":{"type":"Point","coordinates":[78.96466408085644,30.2763234408432]},"id":"265","properties":{"area_m2":3446.69735338239,"candidate_id":265,"decision":"no"}},{"type":"Feature","geometry":{"type":"Point","coordinates":[79.03506896593746,30.401173143244446]},"id":"266","properties":{"area_m2":13425.001954483198,"candidate_id":266,"decision":"no"}},{"type":"Feature","geometry":{"type":"Point","coordinates":[79.16525788417071,30.594776210586343]},"id":"267","properties":{"area_m2":2061.2760956053253,"candidate_id":267,"decision":"no"}},{"type":"Feature","geometry":{"type":"Point","coordinates":[79.04089255115959,30.42319798936078]},"id":"268","properties":{"area_m2":2409.069386719899,"candidate_id":268,"decision":"no"}},{"type":"Feature","geometry":{"type":"Point","coordinates":[79.2391892325936,30.599352889603676]},"id":"269","properties":{"area_m2":6527.0659941829335,"candidate_id":269,"decision":"yes"}},{"type":"Feature","geometry":{"type":"Point","coordinates":[79.2168211794616,30.6146589213933]},"id":"270","properties":{"area_m2":2060.853031433455,"candidate_id":270,"decision":"no"}},{"type":"Feature","geometry":{"type":"Point","coordinates":[78.8759875275781,30.448068490103484]},"id":"271","properties":{"area_m2":2408.455076162099,"candidate_id":271,"decision":"no"}},{"type":"Feature","geometry":{"type":"Point","coordinates":[78.8990586941589,30.241984157369064]},"id":"272","properties":{"area_m2":19653.042399120648,"candidate_id":272,"decision":"no"}},{"type":"Feature","geometry":{"type":"Point","coordinates":[79.05452755252284,30.586140399915145]},"id":"273","properties":{"area_m2":15460.952763001946,"candidate_id":273,"decision":"no"}},{"type":"Feature","geometry":{"type":"Point","coordinates":[79.19104572913166,30.629420200506104]},"id":"274","properties":{"area_m2":9959.27053535239,"candidate_id":274,"decision":"no"}},{"type":"Feature","geometry":{"type":"Point","coordinates":[78.9449909763203,30.26904708909005]},"id":"275","properties":{"area_m2":2068.171577694781,"candidate_id":275,"decision":"no"}},{"type":"Feature","geometry":{"type":"Point","coordinates":[78.9337283470401,30.26696973243187]},"id":"276","properties":{"area_m2":5515.240905734246,"candidate_id":276,"decision":"no"}}]}