{
"type": "FeatureCollection",
"name": "training_points_wgs84",
"crs": { "type": "name", "properties": { "name": "urn:ogc:def:crs:OGC:1.3:CRS84" } },
"features": [
{ "type": "Feature", "properties": { "label": 1 }, "geometry": { "type": "Point", "coordinates": [ 79.145135621134742, 30.509885416121488 ] } },
{ "type": "Feature", "properties": { "label": 1 }, "geometry": { "type": "Point", "coordinates": [ 79.259491157101536, 30.599384567897911 ] } },
{ "type": "Feature", "properties": { "label": 1 }, "geometry": { "type": "Point", "coordinates": [ 78.908527542718332, 30.531534814148902 ] } },
{ "type": "Feature", "properties": { "label": 1 }, "geometry": { "type": "Point", "coordinates": [ 79.189512396866704, 30.62184544374141 ] } },
{ "type": "Feature", "properties": { "label": 1 }, "geometry": { "type": "Point", "coordinates": [ 79.13991256133238, 30.677190220340719 ] } },
{ "type": "Feature", "properties": { "label": 1 }, "geometry": { "type": "Point", "coordinates": [ 78.855578661605449, 30.386891082454024 ] } },
{ "type": "Feature", "properties": { "label": 1 }, "geometry": { "type": "Point", "coordinates": [ 79.156619086346424, 30.59167702232611 ] } },
{ "type": "Feature", "properties": { "label": 1 }, "geometry": { "type": "Point", "coordinates": [ 79.264615085324053, 30.594168523779437 ] } },
{ "type": "Feature", "properties": { "label": 1 }, "geometry": { "type": "Point", "coordinates": [ 79.001354095170711, 30.636102234786158 ] } },
{ "type": "Feature", "properties": { "label": 1 }, "geometry": { "type": "Point", "coordinates": [ 79.104449423570586, 30.553889767979143 ] } },
{ "type": "Feature", "properties": { "label": 1 }, "geometry": { "type": "Point", "coordinates": [ 79.009569864052239, 30.684917158092762 ] } },
{ "type": "Feature", "properties": { "label": 1 }, "geometry": { "type": "Point", "coordinates": [ 79.074369107883953, 30.470974543480281 ] } },
{ "type": "Feature", "properties": { "label": 1 }, "geometry": { "type": "Point", "coordinates": [ 78.992315859000058, 30.660206228556817 ] } },
{ "type": "Feature", "properties": { "label": 1 }, "geometry": { "type": "Point", "coordinates": [ 79.23493015849742, 30.605513718446939 ] } },
{ "type": "Feature", "properties": { "label": 1 }, "geometry": { "type": "Point", "coordinates": [ 79.008097620791588, 30.257833114740304 ] } },
{ "type": "Feature", "properties": { "label": 1 }, "geometry": { "type": "Point", "coordinates": [ 79.262057772168092, 30.596791003225629 ] } },
{ "type": "Feature", "properties": { "label": 1 }, "geometry": { "type": "Point", "coordinates": [ 79.078198298649127, 30.658575843956097 ] } },
{ "type": "Feature", "properties": { "label": 1 }, "geometry": { "type": "Point", "coordinates": [ 79.156242063276125, 30.435016275273888 ] } },
{ "type": "Feature", "properties": { "label": 1 }, "geometry": { "type": "Point", "coordinates": [ 79.035301341994526, 30.48220869401646 ] } },
{ "type": "Feature", "properties": { "label": 1 }, "geometry": { "type": "Point", "coordinates": [ 78.971684761014416, 30.651743218422563 ] } },
{ "type": "Feature", "properties": { "label": 1 }, "geometry": { "type": "Point", "coordinates": [ 79.229347689163433, 30.593658306399714 ] } },
{ "type": "Feature", "properties": { "label": 1 }, "geometry": { "type": "Point", "coordinates": [ 79.076414502870321, 30.660684910136613 ] } },
{ "type": "Feature", "properties": { "label": 1 }, "geometry": { "type": "Point", "coordinates": [ 79.034073909618414, 30.590614017221391 ] } },
{ "type": "Feature", "properties": { "label": 1 }, "geometry": { "type": "Point", "coordinates": [ 79.016946028624076, 30.618397172915355 ] } },
{ "type": "Feature", "properties": { "label": 1 }, "geometry": { "type": "Point", "coordinates": [ 79.214759545908876, 30.69282282476761 ] } },
{ "type": "Feature", "properties": { "label": 1 }, "geometry": { "type": "Point", "coordinates": [ 79.049443659503325, 30.683730810949395 ] } },
{ "type": "Feature", "properties": { "label": 1 }, "geometry": { "type": "Point", "coordinates": [ 79.209791865164959, 30.666933385661789 ] } },
{ "type": "Feature", "properties": { "label": 1 }, "geometry": { "type": "Point", "coordinates": [ 79.067199961845247, 30.709825899461418 ] } },
{ "type": "Feature", "properties": { "label": 1 }, "geometry": { "type": "Point", "coordinates": [ 79.059616007221649, 30.703023201975171 ] } },
{ "type": "Feature", "properties": { "label": 1 }, "geometry": { "type": "Point", "coordinates": [ 79.05973578246865, 30.471317746810943 ] } },
{ "type": "Feature", "properties": { "label": 1 }, "geometry": { "type": "Point", "coordinates": [ 79.045302851267053, 30.696255893286079 ] } },
{ "type": "Feature", "properties": { "label": 1 }, "geometry": { "type": "Point", "coordinates": [ 79.070818135916795, 30.716252555558683 ] } },
{ "type": "Feature", "properties": { "label": 1 }, "geometry": { "type": "Point", "coordinates": [ 79.218832403437702, 30.698169800765363 ] } },
{ "type": "Feature", "properties": { "label": 1 }, "geometry": { "type": "Point", "coordinates": [ 78.971940435414865, 30.696645164873011 ] } },
{ "type": "Feature", "properties": { "label": 1 }, "geometry": { "type": "Point", "coordinates": [ 79.236376375745706, 30.603001405987285 ] } },
{ "type": "Feature", "properties": { "label": 1 }, "geometry": { "type": "Point", "coordinates": [ 79.217830727476198, 30.544866212091847 ] } },
{ "type": "Feature", "properties": { "label": 1 }, "geometry": { "type": "Point", "coordinates": [ 79.239189232593603, 30.599352889603676 ] } },
{ "type": "Feature", "properties": { "label": 1 }, "geometry": { "type": "Point", "coordinates": [ 79.218068842372631, 30.680615225453142 ] } },
{ "type": "Feature", "properties": { "label": 0 }, "geometry": { "type": "Point", "coordinates": [ 78.981734004148478, 30.504254261632173 ] } },
{ "type": "Feature", "properties": { "label": 0 }, "geometry": { "type": "Point", "coordinates": [ 79.000183987628006, 30.534308736437584 ] } },
{ "type": "Feature", "properties": { "label": 0 }, "geometry": { "type": "Point", "coordinates": [ 79.002507024957936, 30.297804708103978 ] } },
{ "type": "Feature", "properties": { "label": 0 }, "geometry": { "type": "Point", "coordinates": [ 79.088170422148636, 30.447670744140453 ] } },
{ "type": "Feature", "properties": { "label": 0 }, "geometry": { "type": "Point", "coordinates": [ 79.024966504245782, 30.483806859917784 ] } },
{ "type": "Feature", "properties": { "label": 0 }, "geometry": { "type": "Point", "coordinates": [ 79.029387369073063, 30.466011501795855 ] } },
{ "type": "Feature", "properties": { "label": 0 }, "geometry": { "type": "Point", "coordinates": [ 78.98572840731876, 30.553030354104546 ] } },
{ "type": "Feature", "properties": { "label": 0 }, "geometry": { "type": "Point", "coordinates": [ 79.092230157006341, 30.447730179411828 ] } },
{ "type": "Feature", "properties": { "label": 0 }, "geometry": { "type": "Point", "coordinates": [ 78.865119610782244, 30.505913933418427 ] } },
{ "type": "Feature", "properties": { "label": 0 }, "geometry": { "type": "Point", "coordinates": [ 79.073276267686197, 30.679931837966361 ] } },
{ "type": "Feature", "properties": { "label": 0 }, "geometry": { "type": "Point", "coordinates": [ 78.998750672083318, 30.543217692500122 ] } },
{ "type": "Feature", "properties": { "label": 0 }, "geometry": { "type": "Point", "coordinates": [ 78.899393341413131, 30.365201578340205 ] } },
{ "type": "Feature", "properties": { "label": 0 }, "geometry": { "type": "Point", "coordinates": [ 78.98319663287441, 30.599810657975596 ] } },
{ "type": "Feature", "properties": { "label": 0 }, "geometry": { "type": "Point", "coordinates": [ 79.019585578638626, 30.223906967231279 ] } },
{ "type": "Feature", "properties": { "label": 0 }, "geometry": { "type": "Point", "coordinates": [ 78.895451279269835, 30.38895383067787 ] } },
{ "type": "Feature", "properties": { "label": 0 }, "geometry": { "type": "Point", "coordinates": [ 78.965198263050496, 30.397637112756737 ] } },
{ "type": "Feature", "properties": { "label": 0 }, "geometry": { "type": "Point", "coordinates": [ 78.982693692170585, 30.503186580641618 ] } },
{ "type": "Feature", "properties": { "label": 0 }, "geometry": { "type": "Point", "coordinates": [ 78.990924024724833, 30.39154012573805 ] } },
{ "type": "Feature", "properties": { "label": 0 }, "geometry": { "type": "Point", "coordinates": [ 78.962800335681479, 30.181627641172149 ] } },
{ "type": "Feature", "properties": { "label": 0 }, "geometry": { "type": "Point", "coordinates": [ 78.918747211170725, 30.394469242562398 ] } },
{ "type": "Feature", "properties": { "label": 0 }, "geometry": { "type": "Point", "coordinates": [ 79.102609444401409, 30.653029170081446 ] } },
{ "type": "Feature", "properties": { "label": 0 }, "geometry": { "type": "Point", "coordinates": [ 79.004467344076815, 30.676186457689013 ] } },
{ "type": "Feature", "properties": { "label": 0 }, "geometry": { "type": "Point", "coordinates": [ 78.915000197577029, 30.335681674370285 ] } },
{ "type": "Feature", "properties": { "label": 0 }, "geometry": { "type": "Point", "coordinates": [ 79.091220161737866, 30.67505469425225 ] } },
{ "type": "Feature", "properties": { "label": 0 }, "geometry": { "type": "Point", "coordinates": [ 78.894079234172722, 30.496371985636497 ] } },
{ "type": "Feature", "properties": { "label": 0 }, "geometry": { "type": "Point", "coordinates": [ 79.177897878988986, 30.561004252704503 ] } },
{ "type": "Feature", "properties": { "label": 0 }, "geometry": { "type": "Point", "coordinates": [ 78.990578380504786, 30.255672140403195 ] } },
{ "type": "Feature", "properties": { "label": 0 }, "geometry": { "type": "Point", "coordinates": [ 78.931353102747579, 30.255291095204452 ] } },
{ "type": "Feature", "properties": { "label": 0 }, "geometry": { "type": "Point", "coordinates": [ 78.987991317535929, 30.260233375180093 ] } },
{ "type": "Feature", "properties": { "label": 0 }, "geometry": { "type": "Point", "coordinates": [ 79.13089890850209, 30.500254427733058 ] } },
{ "type": "Feature", "properties": { "label": 0 }, "geometry": { "type": "Point", "coordinates": [ 78.964533178656225, 30.248774397681068 ] } },
{ "type": "Feature", "properties": { "label": 0 }, "geometry": { "type": "Point", "coordinates": [ 79.233760131666244, 30.53308499690198 ] } },
{ "type": "Feature", "properties": { "label": 0 }, "geometry": { "type": "Point", "coordinates": [ 79.006337428193177, 30.385822235621788 ] } },
{ "type": "Feature", "properties": { "label": 0 }, "geometry": { "type": "Point", "coordinates": [ 78.859857335120154, 30.489319445467519 ] } },
{ "type": "Feature", "properties": { "label": 0 }, "geometry": { "type": "Point", "coordinates": [ 78.897386940250726, 30.545950296961266 ] } },
{ "type": "Feature", "properties": { "label": 0 }, "geometry": { "type": "Point", "coordinates": [ 79.20807512615481, 30.671577158360346 ] } },
{ "type": "Feature", "properties": { "label": 0 }, "geometry": { "type": "Point", "coordinates": [ 78.906299270102366, 30.201847586195068 ] } },
{ "type": "Feature", "properties": { "label": 0 }, "geometry": { "type": "Point", "coordinates": [ 79.131572804853477, 30.383072851382494 ] } }
]
}
