{
"type": "FeatureCollection",
"name": "training_points_matched_wgs84",
"crs": { "type": "name", "properties": { "name": "urn:ogc:def:crs:OGC:1.3:CRS84" } },
"features": [
{ "type": "Feature", "properties": { "label": 1 }, "geometry": { "type": "Point", "coordinates": [ 79.145135621134742, 30.509885416121488 ] } },
{ "type": "Feature", "properties": { "label": 1 }, "geometry": { "type": "Point", "coordinates": [ 79.259491157101536, 30.599384567897911 ] } },
{ "type": "Feature", "properties": { "label": 1 }, "geometry": { "type": "Point", "coordinates": [ 78.908527542718332, 30.531534814148902 ] } },
{ "type": "Feature", "properties": { "label": 1 }, "geometry": { "type": "Point", "coordinates": [ 79.189512396866704, 30.62184544374141 ] } },
{ "type": "Feature", "properties": { "label": 1 }, "geometry": { "type": "Point", "coordinates": [ 79.13991256133238, 30.677190220340719 ] } },
{ "type": "Feature", "properties": { "label": 1 }, "geometry": { "type": "Point", "coordinates": [ 78.855578661605449, 30.386891082454024 ] } },
{ "type": "Feature", "properties": { "label": 1 }, "geometry": { "type": "Point", "coordinates": [ 79.156619086346424, 30.59167702232611 ] } },
{ "type": "Feature", "properties": { "label": 1 }, "geometry": { "type": "Point", "coordinates": [ 79.264615085324053, 30.594168523779437 ] } },
{ "type": "Feature", "properties": { "label": 1 }, "geometry": { "type": "Point", "coordinates": [ 79.001354095170711, 30.636102234786158 ] } },
{ "type": "Feature", "properties": { "label": 1 }, "geometry": { "type": "Point", "coordinates": [ 79.104449423570586, 30.553889767979143 ] } },
{ "type": "Feature", "properties": { "label": 1 }, "geometry": { "type": "Point", "coordinates": [ 79.009569864052239, 30.684917158092762 ] } },
{ "type": "Feature", "properties": { "label": 1 }, "geometry": { "type": "Point", "coordinates": [ 79.074369107883953, 30.470974543480281 ] } },
{ "type": "Feature", "properties": { "label": 1 }, "geometry": { "type": "Point", "coordinates": [ 78.992315859000058, 30.660206228556817 ] } },
{ "type": "Feature", "properties": { "label": 1 }, "geometry": { "type": "Point", "coordinates": [ 79.23493015849742, 30.605513718446939 ] } },
{ "type": "Feature", "properties": { "label": 1 }, "geometry": { "type": "Point", "coordinates": [ 79.008097620791588, 30.257833114740304 ] } },
{ "type": "Feature", "properties": { "label": 1 }, "geometry": { "type": "Point", "coordinates": [ 79.262057772168092, 30.596791003225629 ] } },
{ "type": "Feature", "properties": { "label": 1 }, "geometry": { "type": "Point", "coordinates": [ 79.078198298649127, 30.658575843956097 ] } },
{ "type": "Feature", "properties": { "label": 1 }, "geometry": { "type": "Point", "coordinates": [ 79.156242063276125, 30.435016275273888 ] } },
{ "type": "Feature", "properties": { "label": 1 }, "geometry": { "type": "Point", "coordinates": [ 79.035301341994526, 30.48220869401646 ] } },
{ "type": "Feature", "properties": { "label": 1 }, "geometry": { "type": "Point", "coordinates": [ 78.971684761014416, 30.651743218422563 ] } },
{ "type": "Feature", "properties": { "label": 1 }, "geometry": { "type": "Point", "coordinates": [ 79.229347689163433, 30.593658306399714 ] } },
{ "type": "Feature", "properties": { "label": 1 }, "geometry": { "type": "Point", "coordinates": [ 79.076414502870321, 30.660684910136613 ] } },
{ "type": "Feature", "properties": { "label": 1 }, "geometry": { "type": "Point", "coordinates": [ 79.034073909618414, 30.590614017221391 ] } },
{ "type": "Feature", "properties": { "label": 1 }, "geometry": { "type": "Point", "coordinates": [ 79.016946028624076, 30.618397172915355 ] } },
{ "type": "Feature", "properties": { "label": 1 }, "geometry": { "type": "Point", "coordinates": [ 79.214759545908876, 30.69282282476761 ] } },
{ "type": "Feature", "properties": { "label": 1 }, "geometry": { "type": "Point", "coordinates": [ 79.049443659503325, 30.683730810949395 ] } },
{ "type": "Feature", "properties": { "label": 1 }, "geometry": { "type": "Point", "coordinates": [ 79.209791865164959, 30.666933385661789 ] } },
{ "type": "Feature", "properties": { "label": 1 }, "geometry": { "type": "Point", "coordinates": [ 79.067199961845247, 30.709825899461418 ] } },
{ "type": "Feature", "properties": { "label": 1 }, "geometry": { "type": "Point", "coordinates": [ 79.059616007221649, 30.703023201975171 ] } },
{ "type": "Feature", "properties": { "label": 1 }, "geometry": { "type": "Point", "coordinates": [ 79.05973578246865, 30.471317746810943 ] } },
{ "type": "Feature", "properties": { "label": 1 }, "geometry": { "type": "Point", "coordinates": [ 79.045302851267053, 30.696255893286079 ] } },
{ "type": "Feature", "properties": { "label": 1 }, "geometry": { "type": "Point", "coordinates": [ 79.070818135916795, 30.716252555558683 ] } },
{ "type": "Feature", "properties": { "label": 1 }, "geometry": { "type": "Point", "coordinates": [ 79.218832403437702, 30.698169800765363 ] } },
{ "type": "Feature", "properties": { "label": 1 }, "geometry": { "type": "Point", "coordinates": [ 78.971940435414865, 30.696645164873011 ] } },
{ "type": "Feature", "properties": { "label": 1 }, "geometry": { "type": "Point", "coordinates": [ 79.236376375745706, 30.603001405987285 ] } },
{ "type": "Feature", "properties": { "label": 1 }, "geometry": { "type": "Point", "coordinates": [ 79.217830727476198, 30.544866212091847 ] } },
{ "type": "Feature", "properties": { "label": 1 }, "geometry": { "type": "Point", "coordinates": [ 79.239189232593603, 30.599352889603676 ] } },
{ "type": "Feature", "properties": { "label": 1 }, "geometry": { "type": "Point", "coordinates": [ 79.218068842372631, 30.680615225453142 ] } },
{ "type": "Feature", "properties": { "label": 0 }, "geometry": { "type": "Point", "coordinates": [ 79.144011014662894, 30.51749264915129 ] } },
{ "type": "Feature", "properties": { "label": 0 }, "geometry": { "type": "Point", "coordinates": [ 79.260029912134229, 30.620318460313431 ] } },
{ "type": "Feature", "properties": { "label": 0 }, "geometry": { "type": "Point", "coordinates": [ 78.928082809367481, 30.513966802950399 ] } },
{ "type": "Feature", "properties": { "label": 0 }, "geometry": { "type": "Point", "coordinates": [ 79.207102354043698, 30.605525692836135 ] } },
{ "type": "Feature", "properties": { "label": 0 }, "geometry": { "type": "Point", "coordinates": [ 79.132512916994528, 30.677008179915717 ] } },
{ "type": "Feature", "properties": { "label": 0 }, "geometry": { "type": "Point", "coordinates": [ 78.866053003345343, 30.391453665874185 ] } },
{ "type": "Feature", "properties": { "label": 0 }, "geometry": { "type": "Point", "coordinates": [ 79.161025501832555, 30.576735152786402 ] } },
{ "type": "Feature", "properties": { "label": 0 }, "geometry": { "type": "Point", "coordinates": [ 79.256612601869776, 30.618919426310569 ] } },
{ "type": "Feature", "properties": { "label": 0 }, "geometry": { "type": "Point", "coordinates": [ 79.012394983352877, 30.656010622617242 ] } },
{ "type": "Feature", "properties": { "label": 0 }, "geometry": { "type": "Point", "coordinates": [ 79.10386959214334, 30.540189988017563 ] } },
{ "type": "Feature", "properties": { "label": 0 }, "geometry": { "type": "Point", "coordinates": [ 79.022686557769177, 30.68864356792119 ] } },
{ "type": "Feature", "properties": { "label": 0 }, "geometry": { "type": "Point", "coordinates": [ 79.080355334032618, 30.495730693401331 ] } },
{ "type": "Feature", "properties": { "label": 0 }, "geometry": { "type": "Point", "coordinates": [ 78.997547385673812, 30.662548412058403 ] } },
{ "type": "Feature", "properties": { "label": 0 }, "geometry": { "type": "Point", "coordinates": [ 79.238280296704616, 30.628957058925909 ] } },
{ "type": "Feature", "properties": { "label": 0 }, "geometry": { "type": "Point", "coordinates": [ 79.025899211406752, 30.251067127208241 ] } },
{ "type": "Feature", "properties": { "label": 0 }, "geometry": { "type": "Point", "coordinates": [ 79.259025414860844, 30.606501745845645 ] } },
{ "type": "Feature", "properties": { "label": 0 }, "geometry": { "type": "Point", "coordinates": [ 79.053157529809795, 30.668265134213076 ] } },
{ "type": "Feature", "properties": { "label": 0 }, "geometry": { "type": "Point", "coordinates": [ 79.147608607343003, 30.459624971886214 ] } },
{ "type": "Feature", "properties": { "label": 0 }, "geometry": { "type": "Point", "coordinates": [ 79.045227346185115, 30.501974564630718 ] } },
{ "type": "Feature", "properties": { "label": 0 }, "geometry": { "type": "Point", "coordinates": [ 78.978913111530943, 30.640338819533564 ] } },
{ "type": "Feature", "properties": { "label": 0 }, "geometry": { "type": "Point", "coordinates": [ 79.208627501615894, 30.590660994331454 ] } },
{ "type": "Feature", "properties": { "label": 0 }, "geometry": { "type": "Point", "coordinates": [ 79.08653193597651, 30.658747445486423 ] } },
{ "type": "Feature", "properties": { "label": 0 }, "geometry": { "type": "Point", "coordinates": [ 79.051223101322378, 30.592999216522283 ] } },
{ "type": "Feature", "properties": { "label": 0 }, "geometry": { "type": "Point", "coordinates": [ 78.992797181931806, 30.60455993066082 ] } },
{ "type": "Feature", "properties": { "label": 0 }, "geometry": { "type": "Point", "coordinates": [ 79.221620225809019, 30.684213080575777 ] } },
{ "type": "Feature", "properties": { "label": 0 }, "geometry": { "type": "Point", "coordinates": [ 79.031545106530459, 30.668751318856387 ] } },
{ "type": "Feature", "properties": { "label": 0 }, "geometry": { "type": "Point", "coordinates": [ 79.235762526009282, 30.681428845097187 ] } },
{ "type": "Feature", "properties": { "label": 0 }, "geometry": { "type": "Point", "coordinates": [ 79.065466816084893, 30.694700689414947 ] } },
{ "type": "Feature", "properties": { "label": 0 }, "geometry": { "type": "Point", "coordinates": [ 79.057635749098111, 30.67915758565119 ] } },
{ "type": "Feature", "properties": { "label": 0 }, "geometry": { "type": "Point", "coordinates": [ 79.047900824871988, 30.477656925751621 ] } },
{ "type": "Feature", "properties": { "label": 0 }, "geometry": { "type": "Point", "coordinates": [ 79.050265183595485, 30.703133573183809 ] } },
{ "type": "Feature", "properties": { "label": 0 }, "geometry": { "type": "Point", "coordinates": [ 79.062017587146457, 30.694919884281589 ] } },
{ "type": "Feature", "properties": { "label": 0 }, "geometry": { "type": "Point", "coordinates": [ 79.223543234372954, 30.681803574968843 ] } },
{ "type": "Feature", "properties": { "label": 0 }, "geometry": { "type": "Point", "coordinates": [ 78.97867164506944, 30.682012008139697 ] } },
{ "type": "Feature", "properties": { "label": 0 }, "geometry": { "type": "Point", "coordinates": [ 79.253551977388696, 30.615089229145454 ] } },
{ "type": "Feature", "properties": { "label": 0 }, "geometry": { "type": "Point", "coordinates": [ 79.217579908141943, 30.528804780201483 ] } },
{ "type": "Feature", "properties": { "label": 0 }, "geometry": { "type": "Point", "coordinates": [ 79.214296991404836, 30.588573736271602 ] } },
{ "type": "Feature", "properties": { "label": 0 }, "geometry": { "type": "Point", "coordinates": [ 79.228219398599919, 30.682950043833404 ] } }
]
}
